[{"CCSDS_OMM_VERS":"2.0","COMMENT":"GENERATED VIA SPACE-TRACK.ORG API","CREATION_DATE":"2020-12-02T19:24:44","ORIGINATOR":"18 SPCS","OBJECT_NAME":"STARLINK-1584","OBJECT_ID":"2020-055T","CENTER_NAME":"EARTH","REF_FRAME":"TEME","TIME_SYSTEM":"UTC","MEAN_ELEMENT_THEORY":"SGP4","EPOCH":"2020-12-02T02:28:53.629536","MEAN_MOTION":"15.05584809","ECCENTRICITY":"0.00022350","INCLINATION":"53.0075","RA_OF_ASC_NODE":"121.8979","ARG_OF_PERICENTER":"93.0096","MEAN_ANOMALY":"267.1148","EPHEMERIS_TYPE":"0","CLASSIFICATION_TYPE":"U","NORAD_CAT_ID":"46044","ELEMENT_SET_NO":"999","REV_AT_EPOCH":"1896","BSTAR":"0.00007782800000","MEAN_MOTION_DOT":"0.00000855","MEAN_MOTION_DDOT":"0.0000000000000","SEMIMAJOR_AXIS":"6927.848","PERIOD":"95.643","APOAPSIS":"551.261","PERIAPSIS":"548.164","OBJECT_TYPE":"PAYLOAD","RCS_SIZE":"LARGE","COUNTRY_CODE":"US","LAUNCH_DATE":"2020-08-07","SITE":"AFETR","DECAY_DATE":null,"FILE":"2896233","GP_ID":"166761129","TLE_LINE0":"0 STARLINK-1584","TLE_LINE1":"1 46044U 20055T   20337.10339849  .00000855  00000-0  77828-4 0  9996","TLE_LINE2":"2 46044  53.0075 121.8979 0002235  93.0096 267.1148 15.05584809 18964"},{"CCSDS_OMM_VERS":"2.0","COMMENT":"GENERATED VIA SPACE-TRACK.ORG API","CREATION_DATE":"2020-12-02T19:24:44","ORIGINATOR":"18 SPCS","OBJECT_NAME":"STARLINK-1540","OBJECT_ID":"2020-055AA","CENTER_NAME":"EARTH","REF_FRAME":"TEME","TIME_SYSTEM":"UTC","MEAN_ELEMENT_THEORY":"SGP4","EPOCH":"2020-12-02T02:30:14.282208","MEAN_MOTION":"15.05999043","ECCENTRICITY":"0.00020670","INCLINATION":"53.0114","RA_OF_ASC_NODE":"111.8870","ARG_OF_PERICENTER":"95.9416","MEAN_ANOMALY":"264.1808","EPHEMERIS_TYPE":"0","CLASSIFICATION_TYPE":"U","NORAD_CAT_ID":"46051","ELEMENT_SET_NO":"999","REV_AT_EPOCH":"1911","BSTAR":"0.00325020000000","MEAN_MOTION_DOT":"0.00047939","MEAN_MOTION_DDOT":"0.0000000000000","SEMIMAJOR_AXIS":"6926.577","PERIOD":"95.617","APOAPSIS":"549.874","PERIAPSIS":"547.010","OBJECT_TYPE":"PAYLOAD","RCS_SIZE":"LARGE","COUNTRY_CODE":"US","LAUNCH_DATE":"2020-08-07","SITE":"AFETR","DECAY_DATE":null,"FILE":"2896233","GP_ID":"166760389","TLE_LINE0":"0 STARLINK-1540","TLE_LINE1":"1 46051U 20055AA  20337.10433197  .00047939  00000-0  32502-2 0  9997","TLE_LINE2":"2 46051  53.0114 111.8870 0002067  95.9416 264.1808 15.05999043 19113"},{"CCSDS_OMM_VERS":"2.0","COMMENT":"GENERATED VIA SPACE-TRACK.ORG API","CREATION_DATE":"2020-12-02T18:56:12","ORIGINATOR":"18 SPCS","OBJECT_NAME":"GLOBAL-7","OBJECT_ID":"2020-055BP","CENTER_NAME":"EARTH","REF_FRAME":"TEME","TIME_SYSTEM":"UTC","MEAN_ELEMENT_THEORY":"SGP4","EPOCH":"2020-12-02T02:31:03.543168","MEAN_MOTION":"15.54623063","ECCENTRICITY":"0.00049130","INCLINATION":"53.0072","RA_OF_ASC_NODE":"85.4125","ARG_OF_PERICENTER":"71.0471","MEAN_ANOMALY":"289.1070","EPHEMERIS_TYPE":"0","CLASSIFICATION_TYPE":"U","NORAD_CAT_ID":"46088","ELEMENT_SET_NO":"999","REV_AT_EPOCH":"2278","BSTAR":"0.00022575000000","MEAN_MOTION_DOT":"0.00014749","MEAN_MOTION_DDOT":"0.0000000000000","SEMIMAJOR_AXIS":"6781.385","PERIOD":"92.626","APOAPSIS":"406.582","PERIAPSIS":"399.918","OBJECT_TYPE":"PAYLOAD","RCS_SIZE":"MEDIUM","COUNTRY_CODE":"US","LAUNCH_DATE":"2020-08-07","SITE":"AFETR","DECAY_DATE":null,"FILE":"2895965","GP_ID":"166735009","TLE_LINE0":"0 GLOBAL-7","TLE_LINE1":"1 46088U 20055BP  20337.10490212  .00014749  00000-0  22575-3 0  9991","TLE_LINE2":"2 46088  53.0072  85.4125 0004913  71.0471 289.1070 15.54623063 22788"},{"CCSDS_OMM_VERS":"2.0","COMMENT":"GENERATED VIA SPACE-TRACK.ORG API","CREATION_DATE":"2020-12-02T18:56:12","ORIGINATOR":"18 SPCS","OBJECT_NAME":"STARLINK-1523","OBJECT_ID":"2020-055B","CENTER_NAME":"EARTH","REF_FRAME":"TEME","TIME_SYSTEM":"UTC","MEAN_ELEMENT_THEORY":"SGP4","EPOCH":"2020-12-02T02:33:39.919392","MEAN_MOTION":"15.05597822","ECCENTRICITY":"0.00023240","INCLINATION":"53.0072","RA_OF_ASC_NODE":"121.8956","ARG_OF_PERICENTER":"96.3443","MEAN_ANOMALY":"263.7810","EPHEMERIS_TYPE":"0","CLASSIFICATION_TYPE":"U","NORAD_CAT_ID":"46028","ELEMENT_SET_NO":"999","REV_AT_EPOCH":"1845","BSTAR":"0.00011827000000","MEAN_MOTION_DOT":"0.00001445","MEAN_MOTION_DDOT":"0.0000000000000","SEMIMAJOR_AXIS":"6927.808","PERIOD":"95.643","APOAPSIS":"551.283","PERIAPSIS":"548.063","OBJECT_TYPE":"PAYLOAD","RCS_SIZE":"LARGE","COUNTRY_CODE":"US","LAUNCH_DATE":"2020-08-07","SITE":"AFETR","DECAY_DATE":null,"FILE":"2895925","GP_ID":"166734717","TLE_LINE0":"0 STARLINK-1523","TLE_LINE1":"1 46028U 20055B   20337.10671203  .00001445  00000-0  11827-3 0  9993","TLE_LINE2":"2 46028  53.0072 121.8956 0002324  96.3443 263.7810 15.05597822 18450"},{"CCSDS_OMM_VERS":"2.0","COMMENT":"GENERATED VIA SPACE-TRACK.ORG API","CREATION_DATE":"2020-12-02T19:24:44","ORIGINATOR":"18 SPCS","OBJECT_NAME":"STARLINK-1523","OBJECT_ID":"2020-055B","CENTER_NAME":"EARTH","REF_FRAME":"TEME","TIME_SYSTEM":"UTC","MEAN_ELEMENT_THEORY":"SGP4","EPOCH":"2020-12-02T02:33:39.919392","MEAN_MOTION":"15.05597822","ECCENTRICITY":"0.00023240","INCLINATION":"53.0072","RA_OF_ASC_NODE":"121.8956","ARG_OF_PERICENTER":"96.3443","MEAN_ANOMALY":"263.7810","EPHEMERIS_TYPE":"0","CLASSIFICATION_TYPE":"U","NORAD_CAT_ID":"46028","ELEMENT_SET_NO":"999","REV_AT_EPOCH":"1897","BSTAR":"0.00011827000000","MEAN_MOTION_DOT":"0.00001445","MEAN_MOTION_DDOT":"0.0000000000000","SEMIMAJOR_AXIS":"6927.808","PERIOD":"95.643","APOAPSIS":"551.283","PERIAPSIS":"548.063","OBJECT_TYPE":"PAYLOAD","RCS_SIZE":"LARGE","COUNTRY_CODE":"US","LAUNCH_DATE":"2020-08-07","SITE":"AFETR","DECAY_DATE":null,"FILE":"2896233","GP_ID":"166761127","TLE_LINE0":"0 STARLINK-1523","TLE_LINE1":"1 46028U 20055B   20337.10671203  .00001445  00000-0  11827-3 0  9993","TLE_LINE2":"2 46028  53.0072 121.8956 0002324  96.3443 263.7810 15.05597822 18977"},{"CCSDS_OMM_VERS":"2.0","COMMENT":"GENERATED VIA SPACE-TRACK.ORG API","CREATION_DATE":"2020-12-02T18:56:12","ORIGINATOR":"18 SPCS","OBJECT_NAME":"STARLINK-1561","OBJECT_ID":"2020-055AF","CENTER_NAME":"EARTH","REF_FRAME":"TEME","TIME_SYSTEM":"UTC","MEAN_ELEMENT_THEORY":"SGP4","EPOCH":"2020-12-02T02:35:36.888576","MEAN_MOTION":"15.05687830","ECCENTRICITY":"0.00038400","INCLINATION":"53.0024","RA_OF_ASC_NODE":"111.9078","ARG_OF_PERICENTER":"101.2569","MEAN_ANOMALY":"258.8851","EPHEMERIS_TYPE":"0","CLASSIFICATION_TYPE":"U","NORAD_CAT_ID":"46056","ELEMENT_SET_NO":"999","REV_AT_EPOCH":"1857","BSTAR":"0.00096551000000","MEAN_MOTION_DOT":"0.00013857","MEAN_MOTION_DDOT":"0.0000000000000","SEMIMAJOR_AXIS":"6927.532","PERIOD":"95.637","APOAPSIS":"552.057","PERIAPSIS":"546.736","OBJECT_TYPE":"PAYLOAD","RCS_SIZE":"LARGE","COUNTRY_CODE":"US","LAUNCH_DATE":"2020-08-07","SITE":"AFETR","DECAY_DATE":null,"FILE":"2895938","GP_ID":"166734915","TLE_LINE0":"0 STARLINK-1561","TLE_LINE1":"1 46056U 20055AF  20337.10806584  .00013857  00000-0  96551-3 0  9993","TLE_LINE2":"2 46056  53.0024 111.9078 0003840 101.2569 258.8851 15.05687830 18574"},{"CCSDS_OMM_VERS":"2.0","COMMENT":"GENERATED VIA SPACE-TRACK.ORG API","CREATION_DATE":"2020-12-02T19:24:44","ORIGINATOR":"18 SPCS","OBJECT_NAME":"STARLINK-1561","OBJECT_ID":"2020-055AF","CENTER_NAME":"EARTH","REF_FRAME":"TEME","TIME_SYSTEM":"UTC","MEAN_ELEMENT_THEORY":"SGP4","EPOCH":"2020-12-02T02:35:36.888576","MEAN_MOTION":"15.05687830","ECCENTRICITY":"0.00038400","INCLINATION":"53.0024","RA_OF_ASC_NODE":"111.9078","ARG_OF_PERICENTER":"101.2569","MEAN_ANOMALY":"258.8851","EPHEMERIS_TYPE":"0","CLASSIFICATION_TYPE":"U","NORAD_CAT_ID":"46056","ELEMENT_SET_NO":"999","REV_AT_EPOCH":"1911","BSTAR":"0.00096551000000","MEAN_MOTION_DOT":"0.00013857","MEAN_MOTION_DDOT":"0.0000000000000","SEMIMAJOR_AXIS":"6927.532","PERIOD":"95.637","APOAPSIS":"552.057","PERIAPSIS":"546.736","OBJECT_TYPE":"PAYLOAD","RCS_SIZE":"LARGE","COUNTRY_CODE":"US","LAUNCH_DATE":"2020-08-07","SITE":"AFETR","DECAY_DATE":null,"FILE":"2896233","GP_ID":"166760630","TLE_LINE0":"0 STARLINK-1561","TLE_LINE1":"1 46056U 20055AF  20337.10806584  .00013857  00000-0  96551-3 0  9993","TLE_LINE2":"2 46056  53.0024 111.9078 0003840 101.2569 258.8851 15.05687830 19115"},{"CCSDS_OMM_VERS":"2.0","COMMENT":"GENERATED VIA SPACE-TRACK.ORG API","CREATION_DATE":"2020-12-02T19:24:44","ORIGINATOR":"18 SPCS","OBJECT_NAME":"STARLINK-1576","OBJECT_ID":"2020-055P","CENTER_NAME":"EARTH","REF_FRAME":"TEME","TIME_SYSTEM":"UTC","MEAN_ELEMENT_THEORY":"SGP4","EPOCH":"2020-12-02T02:38:27.393792","MEAN_MOTION":"15.05584896","ECCENTRICITY":"0.00020330","INCLINATION":"53.0036","RA_OF_ASC_NODE":"121.8869","ARG_OF_PERICENTER":"92.3943","MEAN_ANOMALY":"267.7278","EPHEMERIS_TYPE":"0","CLASSIFICATION_TYPE":"U","NORAD_CAT_ID":"46040","ELEMENT_SET_NO":"999","REV_AT_EPOCH":"1892","BSTAR":"0.00012965000000","MEAN_MOTION_DOT":"0.00001610","MEAN_MOTION_DDOT":"0.0000000000000","SEMIMAJOR_AXIS":"6927.847","PERIOD":"95.643","APOAPSIS":"551.121","PERIAPSIS":"548.304","OBJECT_TYPE":"PAYLOAD","RCS_SIZE":"LARGE","COUNTRY_CODE":"US","LAUNCH_DATE":"2020-08-07","SITE":"AFETR","DECAY_DATE":null,"FILE":"2896233","GP_ID":"166760628","TLE_LINE0":"0 STARLINK-1576","TLE_LINE1":"1 46040U 20055P   20337.11003928  .00001610  00000-0  12965-3 0  9999","TLE_LINE2":"2 46040  53.0036 121.8869 0002033  92.3943 267.7278 15.05584896 18926"}]